{
  "type": "FeatureCollection",
  "features": [
    {
      "type": "Feature",
      "properties": {
        "norad_id": 2807,
        "name": "OPS 7218 (TRANSIT 16)",
        "group": "nnss",
        "lat": 88.4376071332425,
        "lon": 161.99925996274743,
        "alt_km": 1047.6610064065844,
        "timestamp": "2025-12-10T21:43:22.356443+00:00",
        "meta_object_name": "OPS 7218 (TRANSIT 16)",
        "meta_object_id": "1967-048A",
        "meta_epoch": "2025-12-10T11:12:53.544960",
        "meta_mean_motion": 13.50721568,
        "meta_eccentricity": 0.00218613,
        "meta_inclination": 89.6732,
        "meta_ra_of_asc_node": 354.0916,
        "meta_arg_of_pericenter": 120.1596,
        "meta_mean_anomaly": 3.7393,
        "meta_ephemeris_type": 0,
        "meta_classification_type": "U",
        "meta_norad_cat_id": 2807,
        "meta_element_set_no": 999,
        "meta_rev_at_epoch": 88245,
        "meta_bstar": 0.00020523115,
        "meta_mean_motion_dot": 1.43e-06,
        "meta_mean_motion_ddot": 0,
        "tle_line1": "1 02807U 67048A   25344.46728640  .00000143  00000+0  20523-3 0  9999",
        "tle_line2": "2 02807  89.6732 354.0916 0021861 120.1596   3.7393 13.50721568882454"
      },
      "geometry": {
        "type": "Point",
        "coordinates": [
          161.99925996274743,
          88.4376071332425
        ]
      }
    },
    {
      "type": "Feature",
      "properties": {
        "norad_id": 2965,
        "name": "OPS 4947 (TRANSIT 17)",
        "group": "nnss",
        "lat": 42.32056337247172,
        "lon": -156.10790903474435,
        "alt_km": 1063.396373864406,
        "timestamp": "2025-12-10T21:43:22.356465+00:00",
        "meta_object_name": "OPS 4947 (TRANSIT 17)",
        "meta_object_id": "1967-092A",
        "meta_epoch": "2025-12-10T12:45:19.206720",
        "meta_mean_motion": 13.53452631,
        "meta_eccentricity": 0.00460603,
        "meta_inclination": 89.2498,
        "meta_ra_of_asc_node": 24.6041,
        "meta_arg_of_pericenter": 241.1249,
        "meta_mean_anomaly": 237.5005,
        "meta_ephemeris_type": 0,
        "meta_classification_type": "U",
        "meta_norad_cat_id": 2965,
        "meta_element_set_no": 999,
        "meta_rev_at_epoch": 87067,
        "meta_bstar": 0.00023317843,
        "meta_mean_motion_dot": 1.69e-06,
        "meta_mean_motion_ddot": 0,
        "tle_line1": "1 02965U 67092A   25344.53147230  .00000169  00000+0  23318-3 0  9994",
        "tle_line2": "2 02965  89.2498  24.6041 0046060 241.1249 237.5005 13.53452631870673"
      },
      "geometry": {
        "type": "Point",
        "coordinates": [
          -156.10790903474435,
          42.32056337247172
        ]
      }
    },
    {
      "type": "Feature",
      "properties": {
        "norad_id": 3133,
        "name": "OPS 7034 (TRANSIT 18)",
        "group": "nnss",
        "lat": -59.62580601742613,
        "lon": -86.31903342171512,
        "alt_km": 1105.6757599329349,
        "timestamp": "2025-12-10T21:43:22.356479+00:00",
        "meta_object_name": "OPS 7034 (TRANSIT 18)",
        "meta_object_id": "1968-012A",
        "meta_epoch": "2025-12-10T13:59:24.625824",
        "meta_mean_motion": 13.51564896,
        "meta_eccentricity": 0.00736384,
        "meta_inclination": 90.0278,
        "meta_ra_of_asc_node": 273.6326,
        "meta_arg_of_pericenter": 175.3824,
        "meta_mean_anomaly": 357.6163,
        "meta_ephemeris_type": 0,
        "meta_classification_type": "U",
        "meta_norad_cat_id": 3133,
        "meta_element_set_no": 999,
        "meta_rev_at_epoch": 56889,
        "meta_bstar": 0.00025956837,
        "meta_mean_motion_dot": 1.82e-06,
        "meta_mean_motion_ddot": 0,
        "tle_line1": "1 03133U 68012A   25344.58292391  .00000182  00000+0  25957-3 0  9995",
        "tle_line2": "2 03133  90.0278 273.6326 0073638 175.3824 357.6163 13.51564896568899"
      },
      "geometry": {
        "type": "Point",
        "coordinates": [
          -86.31903342171512,
          -59.62580601742613
        ]
      }
    },
    {
      "type": "Feature",
      "properties": {
        "norad_id": 4507,
        "name": "NNSS 19 (TRANSIT 19)",
        "group": "nnss",
        "lat": -88.00185388625506,
        "lon": -125.30692481913455,
        "alt_km": 960.9737054091111,
        "timestamp": "2025-12-10T21:43:22.356490+00:00",
        "meta_object_name": "NNSS 19 (TRANSIT 19)",
        "meta_object_id": "1970-067A",
        "meta_epoch": "2025-12-10T06:09:04.713984",
        "meta_mean_motion": 13.51314209,
        "meta_eccentricity": 0.0170695,
        "meta_inclination": 90.0056,
        "meta_ra_of_asc_node": 234.5321,
        "meta_arg_of_pericenter": 300.6377,
        "meta_mean_anomaly": 57.8039,
        "meta_ephemeris_type": 0,
        "meta_classification_type": "U",
        "meta_norad_cat_id": 4507,
        "meta_element_set_no": 999,
        "meta_rev_at_epoch": 72188,
        "meta_bstar": 0.00026981,
        "meta_mean_motion_dot": 1.99e-06,
        "meta_mean_motion_ddot": 0,
        "tle_line1": "1 04507U 70067A   25344.25630456  .00000199  00000+0  26981-3 0  9992",
        "tle_line2": "2 04507  90.0056 234.5321 0170695 300.6377  57.8039 13.51314209721889"
      },
      "geometry": {
        "type": "Point",
        "coordinates": [
          -125.30692481913455,
          -88.00185388625506
        ]
      }
    },
    {
      "type": "Feature",
      "properties": {
        "norad_id": 6909,
        "name": "NNSS 20 (TRANSIT 20)",
        "group": "nnss",
        "lat": -34.31494688781002,
        "lon": 75.17972267381971,
        "alt_km": 1074.622529070317,
        "timestamp": "2025-12-10T21:43:22.356501+00:00",
        "meta_object_name": "NNSS 20 (TRANSIT 20)",
        "meta_object_id": "1973-081A",
        "meta_epoch": "2025-12-10T06:41:18.269088",
        "meta_mean_motion": 13.71432468,
        "meta_eccentricity": 0.0156615,
        "meta_inclination": 89.8563,
        "meta_ra_of_asc_node": 255.091,
        "meta_arg_of_pericenter": 85.6012,
        "meta_mean_anomaly": 276.3026,
        "meta_ephemeris_type": 0,
        "meta_classification_type": "U",
        "meta_norad_cat_id": 6909,
        "meta_element_set_no": 999,
        "meta_rev_at_epoch": 80327,
        "meta_bstar": 0.00033624,
        "meta_mean_motion_dot": 3.42e-06,
        "meta_mean_motion_ddot": 0,
        "tle_line1": "1 06909U 73081A   25344.27868367  .00000342  00000+0  33624-3 0  9997",
        "tle_line2": "2 06909  89.8563 255.0910 0156615  85.6012 276.3026 13.71432468803278"
      },
      "geometry": {
        "type": "Point",
        "coordinates": [
          75.17972267381971,
          -34.31494688781002
        ]
      }
    },
    {
      "type": "Feature",
      "properties": {
        "norad_id": 10457,
        "name": "TRANSAT",
        "group": "nnss",
        "lat": -66.26761052518526,
        "lon": 77.86123377389293,
        "alt_km": 1086.3477962291172,
        "timestamp": "2025-12-10T21:43:22.356512+00:00",
        "meta_object_name": "TRANSAT",
        "meta_object_id": "1977-106A",
        "meta_epoch": "2025-12-10T13:12:22.493376",
        "meta_mean_motion": 13.48943133,
        "meta_eccentricity": 0.00251858,
        "meta_inclination": 89.6482,
        "meta_ra_of_asc_node": 78.6745,
        "meta_arg_of_pericenter": 195.8787,
        "meta_mean_anomaly": 175.373,
        "meta_ephemeris_type": 0,
        "meta_classification_type": "U",
        "meta_norad_cat_id": 10457,
        "meta_element_set_no": 999,
        "meta_rev_at_epoch": 36714,
        "meta_bstar": 0.0001950246,
        "meta_mean_motion_dot": 1.32e-06,
        "meta_mean_motion_ddot": 0,
        "tle_line1": "1 10457U 77106A   25344.55026034  .00000132  00000+0  19502-3 0  9996",
        "tle_line2": "2 10457  89.6482  78.6745 0025185 195.8787 175.3730 13.48943133367145"
      },
      "geometry": {
        "type": "Point",
        "coordinates": [
          77.86123377389293,
          -66.26761052518526
        ]
      }
    },
    {
      "type": "Feature",
      "properties": {
        "norad_id": 12458,
        "name": "NOVA 1",
        "group": "nnss",
        "lat": 4.016346457383803,
        "lon": 91.42139607501149,
        "alt_km": 1177.5389622345565,
        "timestamp": "2025-12-10T21:43:22.356523+00:00",
        "meta_object_name": "NOVA 1",
        "meta_object_id": "1981-044A",
        "meta_epoch": "2025-12-10T14:30:00.893664",
        "meta_mean_motion": 13.23278193,
        "meta_eccentricity": 0.0015872,
        "meta_inclination": 89.8524,
        "meta_ra_of_asc_node": 91.4153,
        "meta_arg_of_pericenter": 109.2382,
        "meta_mean_anomaly": 262.2651,
        "meta_ephemeris_type": 0,
        "meta_classification_type": "U",
        "meta_norad_cat_id": 12458,
        "meta_element_set_no": 999,
        "meta_rev_at_epoch": 15158,
        "meta_bstar": 0.00017333414,
        "meta_mean_motion_dot": 8.2e-07,
        "meta_mean_motion_ddot": 0,
        "tle_line1": "1 12458U 81044A   25344.60417701  .00000082  00000+0  17333-3 0  9990",
        "tle_line2": "2 12458  89.8524  91.4153 0015872 109.2382 262.2651 13.23278193151582"
      },
      "geometry": {
        "type": "Point",
        "coordinates": [
          91.42139607501149,
          4.016346457383803
        ]
      }
    }
  ]
}